25286,IRIDIUM 63,1998,100.25,-1.0,-,86.39,Inactive,0,LEO,Kazakhstan,USA,Unknown,Unknown,Unknown,1 25286U 98021B   25099.77633556  .00000861  00000+0  28703-3 0  9997,2 25286  86.3930 110.8408 0002433  92.9443 267.2032 14.36469678414026,14.36469678,0.0002433,LEO
25319,IRIDIUM 69,1998,99.94,-1.0,-,86.39,Inactive,0,LEO,PRC,USA,Unknown,Unknown,Unknown,1 25319U 98026A   25099.79011573  .00000974  00000+0  29798-3 0  9990,2 25319  86.3945 124.3333 0000866 167.1703 192.9519 14.40879494413218,14.40879494,8.66e-05,LEO
25320,IRIDIUM 71,1998,99.93,-1.0,-,86.39,Inactive,0,LEO,PRC,USA,Unknown,Unknown,Unknown,1 25320U 98026B   25099.80616205  .00000808  00000+0  24511-3 0  9991,2 25320  86.3933 119.0288 0001603  28.1958 331.9328 14.41077175413743,14.41077175,0.0001603,LEO
25344,IRIDIUM 73,1998,99.2,-1.0,-,86.44,Inactive,0,LEO,USA,USA,Unknown,Unknown,Unknown,1 25344U 98032C   25099.88960876  .00001505  00000+0  37100-3 0  9991,2 25344  86.4375  75.8213 0001970 100.3975 259.7453 14.51594134420650,14.51594134,0.000197,LEO
25467,IRIDIUM 82,1998,94.22,-1.0,-,86.37,Inactive,0,LEO,USA,USA,Unknown,Unknown,Unknown,1 25467U 98051A   25099.63478917  .00037534  00000+0  11935-2 0  9999,2 25467  86.3694 143.3476 0092207 194.5269 165.3328 15.28312974413475,15.28312974,0.0092207,LEO
